STARLINK-2430
1 28100C 21027J   21325.13715183 -.00010456  00000-0 -70040-3 0  3252
2 28100  53.0539 357.6219 0001675  60.8821 217.1123 15.06417349    15
